OSCAR 7 (AO-7)          
1 07530U 74089B   26204.28001248 -.00000040  00000+0  41374-4 0  9999
2 07530 101.9909 217.9030 0012610  63.4131 306.8461 12.53698643365049
PHASE 3B (AO-10)        
1 14129U 83058B   26203.81462469  .00000116  00000+0  00000+0 0  9990
2 14129  25.9436 213.6999 5998947 125.4549 306.1498  2.05869117296229
UOSAT 2 (UO-11)         
1 14781U 84021B   26204.86794922  .00001312  00000+0  13880-3 0  9996
2 14781  97.8083 170.0403 0009067  67.3159 292.9016 14.90866325262593
LUSAT (LO-19)           
1 20442U 90005G   26204.53133676  .00000085  00000+0  47158-4 0  9995
2 20442  98.8846 227.3370 0012691  99.0495 261.2125 14.34132489907606
EYESAT A (AO-27)        
1 22825U 93061C   26204.15037507  .00000058  00000+0  39247-4 0  9991
2 22825  98.6861 271.5473 0008293   3.0265 357.0967 14.30950552712142
ITAMSAT (IO-26)         
1 22826U 93061D   26204.60836896  .00000050  00000+0  35795-4 0  9996
2 22826  98.6808 271.9263 0008436 344.3180  15.7740 14.31378421712520
RADIO ROSTO (RS15)      
1 23439U 94085A   26204.74457240 -.00000028  00000+0  42216-3 0  9992
2 23439  64.8138 244.0936 0157246 357.1381   2.8630 11.27583672300020
JAS-2 (FO-29)           
1 24278U 96046B   26204.83380159 -.00000041  00000+0 -49726-5 0  9998
2 24278  98.5215  48.6823 0349930   1.5416 358.6721 13.53275818478128
TECHSAT 1B (GO-32)      
1 25397U 98043D   26204.45017931  .00000045  00000+0  39520-4 0  9995
2 25397  99.0092 198.1273 0002334 101.8892 258.2548 14.24434535456496
ISS (ZARYA)             
1 25544U 98067A   26204.83049110  .00009620  00000+0  18169-3 0  9994
2 25544  51.6314 118.7564 0006921 330.4598  29.5998 15.49124476577435
PCSAT (NO-44)           
1 26931U 01043C   26204.54861199  .00000111  00000+0  72290-4 0  9992
2 26931  67.0505 150.2240 0005843 267.3711  92.6722 14.31967517295656
SAUDISAT 1C (SO-50)     
1 27607U 02058C   26204.09590113  .00000878  00000+0  12088-3 0  9993
2 27607  64.5523  17.8775 0074285 255.8289 103.4556 14.83110516269785
CUTE-1 (CO-55)          
1 27844U 03031E   26204.00389230  .00000238  00000+0  12202-3 0  9993
2 27844  98.6747 212.1136 0010851  82.6312 277.6100 14.24355144196777
CUBESAT XI-IV (CO-57)   
1 27848U 03031J   26204.01036090  .00000205  00000+0  10894-3 0  9990
2 27848  98.6778 211.8037 0010712  99.0689 261.1702 14.23637690196477
MOZHAETS 4 (RS22)       
1 27939U 03042A   26204.89463601  .00000980  00000+0  15896-3 0  9998
2 27939  98.3486  30.2936 0011869 146.4464 344.2325 14.73525519220950
CUBESAT XI-V            
1 28895U 05043F   26202.37477685  .00000932  00000+0  15414-3 0  9994
2 28895  98.3024 358.7230 0015344  97.2573 263.0378 14.72712744106788
CUTE-1.7+APD II (CO-65) 
1 32785U 08021C   26204.90351631  .00005526  00000+0  34633-3 0  9997
2 32785  97.8297 187.0993 0006984 262.5532  97.4902 15.09759353990734
SEEDS II (CO-66)        
1 32791U 08021J   26204.41936485  .00018972  00000+0  58050-3 0  9994
2 32791  97.7535 204.0815 0003921 140.5450 219.6077 15.33884906992845
YUBILEINY (RS30)        
1 32953U 08025A   26204.79647097  .00000076  00000+0  47311-3 0  9991
2 32953  82.5067 332.6677 0018855 229.2639 130.6805 12.43181266824243
KKS-1 (KISEKI)          
1 33499U 09002H   26204.82223059  .00001181  00000+0  15139-3 0  9996
2 33499  98.1169 127.8444 0008117 161.1186 199.0329 14.83205173941624
SWISSCUBE               
1 35932U 09051B   26204.70275328  .00000827  00000+0  17279-3 0  9990
2 35932  98.3998 113.2224 0008119  96.5719 263.6406 14.62542626894490
BEESAT-1                
1 35933U 09051C   26204.45751220  .00000681  00000+0  14632-3 0  9991
2 35933  98.3926 112.5322 0006473 108.5434 251.6470 14.61771462894480
ITUPSAT1                
1 35935U 09051E   26204.68575000  .00000630  00000+0  13985-3 0  9992
2 35935  98.4010 111.9164 0008530 119.7043 240.5006 14.60487961894063
XIWANG-1 (HOPE-1)       
1 36122U 09072B   26204.87545309 -.00000338  00000+0 -76860-3 0  9992
2 36122 100.4040 158.1246 0007792 145.5622 214.5997 13.16438744797834
O/OREOS (USA 219)       
1 37224U 10062C   26204.42499453  .00001789  00000+0  17393-3 0  9991
2 37224  71.9706 358.2425 0014555 349.2914  10.7944 14.93874898122057
JUGNU                   
1 37839U 11058B   26204.86034992  .00000406  00000+0  72512-4 0  9990
2 37839  19.9608  85.6175 0018668 121.6049 319.8089 14.13785470764228
SRMSAT                  
1 37841U 11058D   26204.33651531  .00000363  00000+0  53261-4 0  9991
2 37841  19.9701 200.6646 0011561 241.2167 146.8753 14.11582322762933
STRAND-1                
1 39090U 13009E   26204.05022801  .00000241  00000+0  95167-4 0  9994
2 39090  98.3941  23.4053 0009729 120.1275 240.0877 14.37182344702216
ZACUBE-1 (TSHEPISOSAT)  
1 39417U 13066B   26204.33245205  .00003415  00000+0  26445-3 0  9994
2 39417  97.7990 166.8439 0044074 129.2358 231.2791 15.01362379686151
GOMX-1                  
1 39430U 13066Q   26204.81846378  .00001129  00000+0  17591-3 0  9992
2 39430  97.6472  42.9702 0127527 320.4109  38.7837 14.69557069675290
